CCSDS_OMM_VERS = 2.0
CREATION_DATE  = 
ORIGINATOR     = 

OBJECT_NAME    = COSMOS 1743
OBJECT_ID      = 1986-034A
CENTER_NAME    = EARTH
REF_FRAME      = TEME
TIME_SYSTEM    = UTC
MEAN_ELEMENT_THEORY = SGP/SGP4

EPOCH          = 2025-11-12T21:57:03.355488
MEAN_MOTION    = 15.50153655
ECCENTRICITY   = .00072654
INCLINATION    = 82.5377
RA_OF_ASC_NODE = 195.5188
ARG_OF_PERICENTER = 16.6880
MEAN_ANOMALY   = 343.4609

EPHEMERIS_TYPE = 0
CLASSIFICATION_TYPE = U
NORAD_CAT_ID   = 16719
ELEMENT_SET_NO = 999
REV_AT_EPOCH   = 16211
BSTAR          = .95921787E-3
MEAN_MOTION_DOT = .54394E-3
MEAN_MOTION_DDOT = 0

CCSDS_OMM_VERS = 2.0
CREATION_DATE  = 
ORIGINATOR     = 

OBJECT_NAME    = SL-14 R/B
OBJECT_ID      = 1986-046B
CENTER_NAME    = EARTH
REF_FRAME      = TEME
TIME_SYSTEM    = UTC
MEAN_ELEMENT_THEORY = SGP/SGP4

EPOCH          = 2025-11-12T14:30:05.692320
MEAN_MOTION    = 14.85440668
ECCENTRICITY   = .00216729
INCLINATION    = 82.4833
RA_OF_ASC_NODE = 190.7715
ARG_OF_PERICENTER = 254.2886
MEAN_ANOMALY   = 105.5939

EPHEMERIS_TYPE = 0
CLASSIFICATION_TYPE = U
NORAD_CAT_ID   = 16792
ELEMENT_SET_NO = 999
REV_AT_EPOCH   = 10902
BSTAR          = .10564406E-3
MEAN_MOTION_DOT = .938E-5
MEAN_MOTION_DDOT = 0

CCSDS_OMM_VERS = 2.0
CREATION_DATE  = 
ORIGINATOR     = 

OBJECT_NAME    = SL-14 R/B
OBJECT_ID      = 1986-055B
CENTER_NAME    = EARTH
REF_FRAME      = TEME
TIME_SYSTEM    = UTC
MEAN_ELEMENT_THEORY = SGP/SGP4

EPOCH          = 2025-11-12T13:22:04.553760
MEAN_MOTION    = 14.85482443
ECCENTRICITY   = .00191621
INCLINATION    = 82.5216
RA_OF_ASC_NODE = 236.7292
ARG_OF_PERICENTER = 4.6852
MEAN_ANOMALY   = 168.3309

EPHEMERIS_TYPE = 0
CLASSIFICATION_TYPE = U
NORAD_CAT_ID   = 16882
ELEMENT_SET_NO = 999
REV_AT_EPOCH   = 10197
BSTAR          = .1378015E-3
MEAN_MOTION_DOT = .1216E-4
MEAN_MOTION_DDOT = 0

CCSDS_OMM_VERS = 2.0
CREATION_DATE  = 
ORIGINATOR     = 

OBJECT_NAME    = AJISAI (EGS)
OBJECT_ID      = 1986-061A
CENTER_NAME    = EARTH
REF_FRAME      = TEME
TIME_SYSTEM    = UTC
MEAN_ELEMENT_THEORY = SGP/SGP4

EPOCH          = 2025-11-12T23:02:16.226592
MEAN_MOTION    = 12.44514143
ECCENTRICITY   = .00111909
INCLINATION    = 50.0082
RA_OF_ASC_NODE = 92.2862
ARG_OF_PERICENTER = 350.9083
MEAN_ANOMALY   = 126.7506

EPHEMERIS_TYPE = 0
CLASSIFICATION_TYPE = U
NORAD_CAT_ID   = 16908
ELEMENT_SET_NO = 999
REV_AT_EPOCH   = 45346
BSTAR          = .36877703E-4
MEAN_MOTION_DOT = -.92E-6
MEAN_MOTION_DDOT = 0

CCSDS_OMM_VERS = 2.0
CREATION_DATE  = 
ORIGINATOR     = 

OBJECT_NAME    = COSMOS 1812
OBJECT_ID      = 1987-003A
CENTER_NAME    = EARTH
REF_FRAME      = TEME
TIME_SYSTEM    = UTC
MEAN_ELEMENT_THEORY = SGP/SGP4

EPOCH          = 2025-11-12T18:04:41.268288
MEAN_MOTION    = 15.69396798
ECCENTRICITY   = .00049899
INCLINATION    = 82.4887
RA_OF_ASC_NODE = 324.3228
ARG_OF_PERICENTER = 138.2249
MEAN_ANOMALY   = 221.9394

EPHEMERIS_TYPE = 0
CLASSIFICATION_TYPE = U
NORAD_CAT_ID   = 17295
ELEMENT_SET_NO = 999
REV_AT_EPOCH   = 12594
BSTAR          = .90473866E-3
MEAN_MOTION_DOT = .107104E-2
MEAN_MOTION_DDOT = 0

CCSDS_OMM_VERS = 2.0
CREATION_DATE  = 
ORIGINATOR     = 

OBJECT_NAME    = SL-14 R/B
OBJECT_ID      = 1987-024B
CENTER_NAME    = EARTH
REF_FRAME      = TEME
TIME_SYSTEM    = UTC
MEAN_ELEMENT_THEORY = SGP/SGP4

EPOCH          = 2025-11-12T09:51:30.929760
MEAN_MOTION    = 14.85980647
ECCENTRICITY   = .00168849
INCLINATION    = 82.5303
RA_OF_ASC_NODE = 202.9415
ARG_OF_PERICENTER = 291.3706
MEAN_ANOMALY   = 68.5708

EPHEMERIS_TYPE = 0
CLASSIFICATION_TYPE = U
NORAD_CAT_ID   = 17567
ELEMENT_SET_NO = 999
REV_AT_EPOCH   = 7071
BSTAR          = .12518494E-3
MEAN_MOTION_DOT = .1119E-4
MEAN_MOTION_DDOT = 0

CCSDS_OMM_VERS = 2.0
CREATION_DATE  = 
ORIGINATOR     = 

OBJECT_NAME    = COSMOS 1833
OBJECT_ID      = 1987-027A
CENTER_NAME    = EARTH
REF_FRAME      = TEME
TIME_SYSTEM    = UTC
MEAN_ELEMENT_THEORY = SGP/SGP4

EPOCH          = 2025-11-12T16:51:18.002880
MEAN_MOTION    = 14.13020013
ECCENTRICITY   = .00212121
INCLINATION    = 70.9150
RA_OF_ASC_NODE = 211.9202
ARG_OF_PERICENTER = 14.0630
MEAN_ANOMALY   = 346.1077

EPHEMERIS_TYPE = 0
CLASSIFICATION_TYPE = U
NORAD_CAT_ID   = 17589
ELEMENT_SET_NO = 999
REV_AT_EPOCH   = 99378
BSTAR          = -.81475935E-4
MEAN_MOTION_DOT = -.2E-5
MEAN_MOTION_DDOT = 0

CCSDS_OMM_VERS = 2.0
CREATION_DATE  = 
ORIGINATOR     = 

OBJECT_NAME    = SL-16 R/B
OBJECT_ID      = 1987-027B
CENTER_NAME    = EARTH
REF_FRAME      = TEME
TIME_SYSTEM    = UTC
MEAN_ELEMENT_THEORY = SGP/SGP4

EPOCH          = 2025-11-12T20:58:59.586528
MEAN_MOTION    = 14.17147652
ECCENTRICITY   = .00072057
INCLINATION    = 71.0009
RA_OF_ASC_NODE = 162.6502
ARG_OF_PERICENTER = 291.0953
MEAN_ANOMALY   = 68.9400

EPHEMERIS_TYPE = 0
CLASSIFICATION_TYPE = U
NORAD_CAT_ID   = 17590
ELEMENT_SET_NO = 999
REV_AT_EPOCH   = 99883
BSTAR          = .12978531E-4
MEAN_MOTION_DOT = -.22E-6
MEAN_MOTION_DDOT = 0

CCSDS_OMM_VERS = 2.0
CREATION_DATE  = 
ORIGINATOR     = 

OBJECT_NAME    = SL-14 R/B
OBJECT_ID      = 1987-038B
CENTER_NAME    = EARTH
REF_FRAME      = TEME
TIME_SYSTEM    = UTC
MEAN_ELEMENT_THEORY = SGP/SGP4

EPOCH          = 2025-11-12T16:22:36.672960
MEAN_MOTION    = 14.85217063
ECCENTRICITY   = .00191218
INCLINATION    = 82.5037
RA_OF_ASC_NODE = 47.0051
ARG_OF_PERICENTER = 187.1213
MEAN_ANOMALY   = 172.9734

EPHEMERIS_TYPE = 0
CLASSIFICATION_TYPE = U
NORAD_CAT_ID   = 17912
ELEMENT_SET_NO = 999
REV_AT_EPOCH   = 6186
BSTAR          = .12867088E-3
MEAN_MOTION_DOT = .113E-4
MEAN_MOTION_DDOT = 0

CCSDS_OMM_VERS = 2.0
CREATION_DATE  = 
ORIGINATOR     = 

OBJECT_NAME    = COSMOS 1844
OBJECT_ID      = 1987-041A
CENTER_NAME    = EARTH
REF_FRAME      = TEME
TIME_SYSTEM    = UTC
MEAN_ELEMENT_THEORY = SGP/SGP4

EPOCH          = 2025-11-12T20:40:14.409696
MEAN_MOTION    = 14.14521821
ECCENTRICITY   = .00316798
INCLINATION    = 70.8988
RA_OF_ASC_NODE = 280.5881
ARG_OF_PERICENTER = 202.0499
MEAN_ANOMALY   = 157.9263

EPHEMERIS_TYPE = 0
CLASSIFICATION_TYPE = U
NORAD_CAT_ID   = 17973
ELEMENT_SET_NO = 999
REV_AT_EPOCH   = 98706
BSTAR          = .28577737E-3
MEAN_MOTION_DOT = .503E-5
MEAN_MOTION_DDOT = 0

CCSDS_OMM_VERS = 2.0
CREATION_DATE  = 
ORIGINATOR     = 

OBJECT_NAME    = SL-14 R/B
OBJECT_ID      = 1987-055B
CENTER_NAME    = EARTH
REF_FRAME      = TEME
TIME_SYSTEM    = UTC
MEAN_ELEMENT_THEORY = SGP/SGP4

EPOCH          = 2025-11-12T16:18:33.729984
MEAN_MOTION    = 14.85472974
ECCENTRICITY   = .00217131
INCLINATION    = 82.4974
RA_OF_ASC_NODE = 99.3162
ARG_OF_PERICENTER = 43.5270
MEAN_ANOMALY   = 316.7654

EPHEMERIS_TYPE = 0
CLASSIFICATION_TYPE = U
NORAD_CAT_ID   = 18153
ELEMENT_SET_NO = 999
REV_AT_EPOCH   = 5256
BSTAR          = .12707448E-3
MEAN_MOTION_DOT = .1124E-4
MEAN_MOTION_DDOT = 0

CCSDS_OMM_VERS = 2.0
CREATION_DATE  = 
ORIGINATOR     = 

OBJECT_NAME    = COSMOS 1867
OBJECT_ID      = 1987-060A
CENTER_NAME    = EARTH
REF_FRAME      = TEME
TIME_SYSTEM    = UTC
MEAN_ELEMENT_THEORY = SGP/SGP4

EPOCH          = 2025-11-12T23:32:51.077472
MEAN_MOTION    = 14.31478978
ECCENTRICITY   = .00137071
INCLINATION    = 65.0103
RA_OF_ASC_NODE = 273.5367
ARG_OF_PERICENTER = 268.1410
MEAN_ANOMALY   = 91.8105

EPHEMERIS_TYPE = 0
CLASSIFICATION_TYPE = U
NORAD_CAT_ID   = 18187
ELEMENT_SET_NO = 999
REV_AT_EPOCH   = 323
BSTAR          = .68957728E-4
MEAN_MOTION_DOT = .83E-6
MEAN_MOTION_DDOT = 0

